{
    "links": {
        "self": "http://www.neowsapp.com/rest/v1/neo/3550136?api_key=iIulBulltgU6a56xZRHN4H3l9WmuAYTsLGpBGhQ2"
    },
    "id": "3550136",
    "neo_reference_id": "3550136",
    "name": "(2010 VM)",
    "designation": "2010 VM",
    "nasa_jpl_url": "http://ssd.jpl.nasa.gov/sbdb.cgi?sstr=3550136",
    "absolute_magnitude_h": 26.1,
    "estimated_diameter": {
        "kilometers": {
            "estimated_diameter_min": 0.0160160338,
            "estimated_diameter_max": 0.0358129403
        },
        "meters": {
            "estimated_diameter_min": 16.0160337979,
            "estimated_diameter_max": 35.8129403019
        },
        "miles": {
            "estimated_diameter_min": 0.0099518989,
            "estimated_diameter_max": 0.0222531225
        },
        "feet": {
            "estimated_diameter_min": 52.5460443254,
            "estimated_diameter_max": 117.4965270602
        }
    },
    "is_potentially_hazardous_asteroid": false,
    "close_approach_data": [
        {
            "close_approach_date": "2010-10-20",
            "close_approach_date_full": "2010-Oct-20 04:35",
            "epoch_date_close_approach": 1287549300000,
            "relative_velocity": {
                "kilometers_per_second": "9.7016120978",
                "kilometers_per_hour": "34925.8035519353",
                "miles_per_hour": "21701.5361014789"
            },
            "miss_distance": {
                "astronomical": "0.0850180014",
                "lunar": "33.0720025446",
                "kilometers": "12718511.921097018",
                "miles": "7902916.8446461284"
            },
            "orbiting_body": "Earth"
        }
    ],
    "orbital_data": {
        "orbit_id": "7",
        "orbit_determination_date": "2019-07-16 06:14:07",
        "first_observation_date": "2010-11-01",
        "last_observation_date": "2010-11-03",
        "data_arc_in_days": 2,
        "observations_used": 20,
        "orbit_uncertainty": "8",
        "minimum_orbit_intersection": ".0849795",
        "jupiter_tisserand_invariant": "4.364",
        "epoch_osculation": "2455503.5",
        "eccentricity": ".3442661412918495",
        "semi_major_axis": "1.543301362874104",
        "inclination": "14.00641014859245",
        "ascending_node_longitude": "38.33220142755197",
        "orbital_period": "700.2845364275211",
        "perihelion_distance": "1.011994957826984",
        "perihelion_argument": "312.2979082288975",
        "aphelion_distance": "2.074607767921225",
        "perihelion_time": "2455456.729960163865",
        "mean_anomaly": "24.04339017237637",
        "mean_motion": ".5140767520535701",
        "equinox": "J2000",
        "orbit_class": {
            "orbit_class_type": "APO",
            "orbit_class_description": "Near-Earth asteroid orbits which cross the Earth’s orbit similar to that of 1862 Apollo",
            "orbit_class_range": "a (semi-major axis) > 1.0 AU; q (perihelion) < 1.017 AU"
        }
    },
    "is_sentry_object": false
}